#cV2022  2  7  0  0  0.00000000    1910   SLR   ECF FIT NSGF
## 2196  86400.00000000   180.00000000 59617 0.0000000000000
+    1   L56  0  0  0  0  0  0  0  0  0  0  0  0  0  0  0  0
+          0  0  0  0  0  0  0  0  0  0  0  0  0  0  0  0  0
+          0  0  0  0  0  0  0  0  0  0  0  0  0  0  0  0  0
+          0  0  0  0  0  0  0  0  0  0  0  0  0  0  0  0  0
+          0  0  0  0  0  0  0  0  0  0  0  0  0  0  0  0  0
++         0  0  0  0  0  0  0  0  0  0  0  0  0  0  0  0  0
++         0  0  0  0  0  0  0  0  0  0  0  0  0  0  0  0  0
++         0  0  0  0  0  0  0  0  0  0  0  0  0  0  0  0  0
++         0  0  0  0  0  0  0  0  0  0  0  0  0  0  0  0  0
++         0  0  0  0  0  0  0  0  0  0  0  0  0  0  0  0  0
%c L  cc UTC ccc cccc cccc cccc cccc ccccc ccccc ccccc ccccc
%c cc cc ccc ccc cccc cccc cccc cccc ccccc ccccc ccccc ccccc
%f  0.0000000  0.000000000  0.00000000000  0.000000000000000
%f  0.0000000  0.000000000  0.00000000000  0.000000000000000
%i    0    0    0    0      0      0      0      0         0
%i    0    0    0    0      0      0      0      0         0
/*                                                          
/* Earth-centered-fixed orbital predictions from SGF ILRS AC
/* The underlying ECF frame is that of IERS/ITRF            
/* Note: Solution based on 4-day long arc                   
/*                                                          
*  2022  2  9 23 24  0.00000000
PL56  -2054.184493   3347.839935   5997.314839
VL56 -10744.170000  63600.369000 -39135.357000
*  2022  2  9 23 27  0.00000000
PL56  -2196.398287   4430.065429   5192.228570
VL56  -5043.126100  56272.270000 -50058.614000
*  2022  2  9 23 30  0.00000000
PL56  -2235.992539   5360.982903   4205.672016
VL56    615.654120  46837.079000 -59239.198000
*  2022  2  9 23 33  0.00000000
PL56  -2175.979926   6105.531519   3072.037018
VL56   5984.218600  35626.143000 -66352.251000
*  2022  2  9 23 36  0.00000000
PL56  -2023.681911   6635.269663   1830.926746
VL56  10833.539000  23041.379000 -71145.454000
*  2022  2  9 23 39  0.00000000
PL56  -1790.295531   6929.516162    525.755173
VL56  14963.625000   9540.414500 -73449.213000
*  2022  2  9 23 42  0.00000000
PL56  -1490.288417   6976.197322   -797.809917
VL56  18212.363000  -4381.140500 -73183.585000
*  2022  2  9 23 45  0.00000000
PL56  -1140.652849   6772.354783  -2093.499819
VL56  20462.372000 -18209.568000 -70362.037000
*  2022  2  9 23 48  0.00000000
PL56   -760.054594   6324.275488  -3316.122263
VL56  21645.561000 -31434.933000 -65090.001000
*  2022  2  9 23 51  0.00000000
PL56   -367.926375   5647.243800  -4423.171390
VL56  21744.869000 -43570.622000 -57559.317000
*  2022  2  9 23 54  0.00000000
PL56     16.447251   4764.949904  -5376.311330
VL56  20793.537000 -54172.126000 -48039.858000
*  2022  2  9 23 57  0.00000000
PL56    374.811893   3708.586400  -6142.682859
VL56  18872.118000 -62852.857000 -36868.280000
*  2022  2 10  0  0  0.00000000
PL56    690.752660   2515.679526  -6695.990992
VL56  16103.423000 -69297.592000 -24434.933000
*  2022  2 10  0  3  0.00000000
PL56    950.395390   1228.711727  -7017.344383
VL56  12645.717000 -73272.198000 -11169.700000
*  2022  2 10  0  6  0.00000000
PL56   1142.975963   -106.403493  -7095.838133
VL56   8684.904700 -74630.530000   2472.285500
*  2022  2 10  0  9  0.00000000
PL56   1261.260598  -1441.946704  -6928.878368
VL56   4425.848700 -73318.552000  16025.136000
*  2022  2 10  0 12  0.00000000
PL56   1301.805263  -2730.067226  -6522.246045
VL56     83.263112 -69375.677000  29026.511000
*  2022  2 10  0 15  0.00000000
PL56   1265.050910  -3924.461077  -5889.910388
VL56  -4127.472900 -62934.130000  41031.252000
*  2022  2 10  0 18  0.00000000
PL56   1155.250895  -4982.018127  -5053.591145
VL56  -7999.682600 -54215.739000  51625.775000
*  2022  2 10  0 21  0.00000000
PL56    980.232526  -5864.382024  -4042.065161
VL56 -11344.416000 -43525.587000  60441.764000
*  2022  2 10  0 24  0.00000000
PL56    750.999392  -6539.371072  -2890.232062
VL56 -13999.057000 -31242.829000  67169.346000
*  2022  2 10  0 27  0.00000000
PL56    481.187332  -6982.203473  -1637.952093
VL56 -15834.903000 -17808.208000  71569.044000
*  2022  2 10  0 30  0.00000000
PL56    186.396030  -7176.469433   -328.685697
VL56 -16763.380000  -3708.323300  73481.788000
*  2022  2 10  0 33  0.00000000
PL56   -116.576764  -7114.795071    992.022127
VL56 -16740.503000  10542.661000  72835.888000
*  2022  2 10  0 36  0.00000000
PL56   -410.561950  -6799.160688   2278.151767
VL56 -15769.188000  24422.937000  69650.611000
*  2022  2 10  0 39  0.00000000
PL56   -678.866382  -6240.852895   3484.851194
VL56 -13899.186000  37423.769000  64036.049000
*  2022  2 10  0 42  0.00000000
PL56   -906.097168  -5460.043046   4570.037604
VL56 -11224.615000  49069.928000  56188.691000
*  2022  2 10  0 45  0.00000000
PL56  -1078.922526  -4485.019413   5495.883837
VL56  -7879.459400  58937.602000  46383.419000
*  2022  2 10  0 48  0.00000000
PL56  -1186.733008  -3351.117942   6230.139678
VL56  -4031.020400  66669.886000  34963.066000
*  2022  2 10  0 51  0.00000000
PL56  -1222.172885  -2099.395638   6747.243029
VL56    127.935640  71989.772000  22325.530000
*  2022  2 10  0 54  0.00000000
PL56  -1181.518417   -775.111219   7029.182486
VL56   4388.131300  74708.661000   8909.532300
*  2022  2 10  0 57  0.00000000
PL56  -1064.892615    573.926159   7066.103222
VL56   8533.014000  74732.516000  -4819.915200
*  2022  2 10  1  0  0.00000000
PL56   -876.307763   1899.089846   6856.641633
VL56  12348.671000  72064.761000 -18386.893000
*  2022  2 10  1  3  0.00000000
PL56   -623.529251   3152.693205   6407.982058
VL56  15633.604000  66806.143000 -31320.123000
*  2022  2 10  1  6  0.00000000
PL56   -317.766368   4289.717009   5735.632300
VL56  18208.159000  59151.530000 -43168.692000
*  2022  2 10  1  9  0.00000000
PL56     26.799000   5269.451927   4862.919882
VL56  19923.084000  49383.586000 -53517.189000
*  2022  2 10  1 12  0.00000000
PL56    393.631427   6057.001064   3820.215406
VL56  20667.293000  37863.627000 -62000.875000
*  2022  2 10  1 15  0.00000000
PL56    764.584922   6624.579857   2643.897515
VL56  20373.779000  25018.391000 -68318.978000
*  2022  2 10  1 18  0.00000000
PL56   1120.741581   6952.567783   1375.086435
VL56  19024.261000  11324.880000 -72247.423000
*  2022  2 10  1 21  0.00000000
PL56   1443.307685   7030.240141     58.173086
VL56  16651.060000  -2708.335700 -73648.132000
*  2022  2 10  1 24  0.00000000
PL56   1714.519758   6856.140854  -1260.781151
VL56  13335.967000 -16563.426000 -72474.191000
*  2022  2 10  1 27  0.00000000
PL56   1918.514231   6438.082177  -2535.707734
VL56   9207.461700 -29732.176000 -68771.534000
*  2022  2 10  1 30  0.00000000
PL56   2042.117177   5792.775005  -3722.185818
VL56   4434.859000 -41737.197000 -62676.588000
*  2022  2 10  1 33  0.00000000
PL56   2075.516592   4945.109186  -4779.019890
VL56   -779.026890 -52150.055000 -54409.951000
*  2022  2 10  1 36  0.00000000
PL56   2012.784465   3927.123103  -5669.670797
VL56  -6207.046200 -60607.134000 -44266.525000
*  2022  2 10  1 39  0.00000000
PL56   1852.226839   2776.726279  -6363.486945
VL56 -11607.596000 -66821.409000 -32603.465000
*  2022  2 10  1 42  0.00000000
PL56   1596.550996   1536.239462  -6836.704987
VL56 -16734.983000 -70590.858000 -19826.574000
*  2022  2 10  1 45  0.00000000
PL56   1252.848002    250.816844  -7073.198337
VL56 -21349.484000 -71803.225000  -6376.218200
*  2022  2 10  1 48  0.00000000
PL56    832.394624  -1033.190817  -7064.969537
VL56 -25227.355000 -70437.840000   7287.119800
*  2022  2 10  1 51  0.00000000
PL56    350.279913  -2269.882034  -6812.381844
VL56 -28170.235000 -66564.899000  20697.354000
*  2022  2 10  1 54  0.00000000
PL56   -175.128035  -3415.408909  -6324.135576
VL56 -30013.554000 -60341.759000  33396.492000
*  2022  2 10  1 57  0.00000000
PL56   -722.863366  -4429.506745  -5616.994178
VL56 -30634.392000 -52008.028000  44949.052000
*  2022  2 10  2  0  0.00000000
PL56  -1270.171645  -5276.903840  -4715.254285
VL56 -29957.924000 -41877.427000  54955.788000
*  2022  2 10  2  3  0.00000000
PL56  -1793.423438  -5928.568619  -3649.968585
VL56 -27962.463000 -30327.623000  63067.483000
*  2022  2 10  2  6  0.00000000
PL56  -2269.101910  -6362.747140  -2457.928169
VL56 -24682.508000 -17787.183000  68997.777000
*  2022  2 10  2  9  0.00000000
PL56  -2674.823920  -6565.744736  -1180.427578
VL56 -20209.425000  -4720.287000  72534.385000
*  2022  2 10  2 12  0.00000000
PL56  -2990.350082  -6532.413234    138.155431
VL56 -14689.491000   8390.691100  73548.299000
*  2022  2 10  2 15  0.00000000
PL56  -3198.534346  -6266.308646   1451.918104
VL56  -8319.108700  21064.204000  71999.767000
*  2022  2 10  2 18  0.00000000
PL56  -3286.163553  -5779.504079   2715.064048
VL56  -1337.429300  32838.626000  67940.410000
*  2022  2 10  2 21  0.00000000
PL56  -3244.643181  -5092.064043   3883.537934
VL56   5983.282200  43290.544000  61511.403000
*  2022  2 10  2 24  0.00000000
PL56  -3070.494225  -4231.207297   4916.592178
VL56  13348.855000  52050.941000  52937.873000
*  2022  2 10  2 27  0.00000000
PL56  -2765.639413  -3230.201088   5778.222883
VL56  20455.340000  58818.780000  42520.058000
*  2022  2 10  2 30  0.00000000
PL56  -2337.465650  -2127.040804   6438.421106
VL56  27001.671000  63371.136000  30621.738000
*  2022  2 10  2 33  0.00000000
PL56  -1798.660519   -962.980303   6874.200337
VL56  32701.978000  65569.742000  17657.103000
*  2022  2 10  2 36  0.00000000
PL56  -1166.831493    219.030608   7070.374848
VL56  37297.338000  65364.722000   4076.132500
*  2022  2 10  2 39  0.00000000
PL56   -463.924916   1375.939823   7020.065461
VL56  40566.226000  62794.338000  -9650.627800
*  2022  2 10  2 42  0.00000000
PL56    284.536733   2466.163110   6724.936193
VL56  42334.343000  57982.772000 -23047.108000
*  2022  2 10  2 45  0.00000000
PL56   1050.381229   3451.086341   6195.151226
VL56  42482.815000  51134.769000 -35647.502000
EOF
